{"type": "FeatureCollection", "features": [ {"type": "Feature", "properties": {"norad_id": 35432, "name": "COSMOS 2251 DEB", "group": "cosmos-2251-debris", "lat": 73.93581644028863, "lon": 73.10000693103927, "alt_km": 490.05653138407706, "timestamp": "2025-12-25T09:48:52.685126+00:00", "meta": {"OBJECT_NAME": "COSMOS 2251 DEB", "OBJECT_ID": "1993-036AKA", "EPOCH": "2025-12-24T06:39:14.313600", "MEAN_MOTION": 15.2444661, "ECCENTRICITY": 0.00124517, "INCLINATION": 74.022, "RA_OF_ASC_NODE": 351.1973, "ARG_OF_PERICENTER": 322.1047, "MEAN_ANOMALY": 37.9275, "EPHEMERIS_TYPE": 0, "CLASSIFICATION_TYPE": "U", "NORAD_CAT_ID": 35432, "ELEMENT_SET_NO": 999, "REV_AT_EPOCH": 87679, "BSTAR": 0.0021028798, "MEAN_MOTION_DOT": 0.0005207, "MEAN_MOTION_DDOT": 0}, "tle": {"line1": "1 35432U 93036AKA 25358.27724900  .00052070  00000+0  21029-2 0  9991", "line2": "2 35432  74.0220 351.1973 0012451 322.1047  37.9275 15.24446610876798"}}, "geometry": {"type": "Point", "coordinates": [73.10000693103927, 73.93581644028863]}}, {"type": "Feature", "properties": {"norad_id": 35433, "name": "COSMOS 2251 DEB", "group": "cosmos-2251-debris", "lat": 14.22485382133257, "lon": 131.08005775373238, "alt_km": 793.231220271995, "timestamp": "2025-12-25T09:48:52.685135+00:00", "meta": {"OBJECT_NAME": "COSMOS 2251 DEB", "OBJECT_ID": "1993-036AKB", "EPOCH": "2025-12-10T18:27:52.031808", "MEAN_MOTION": 14.34742553, "ECCENTRICITY": 0.00254013, "INCLINATION": 74.0339, "RA_OF_ASC_NODE": 342.0559, "ARG_OF_PERICENTER": 37.4572, "MEAN_ANOMALY": 142.4072, "EPHEMERIS_TYPE": 0, "CLASSIFICATION_TYPE": "U", "NORAD_CAT_ID": 35433, "ELEMENT_SET_NO": 999, "REV_AT_EPOCH": 86552, "BSTAR": 0.00041847558, "MEAN_MOTION_DOT": 1.164e-05, "MEAN_MOTION_DDOT": 0}, "tle": {"line1": "1 35433U 93036AKB 25344.76935222  .00001164  00000+0  41848-3 0  9992", "line2": "2 35433  74.0339 342.0559 0025401  37.4572 142.4072 14.34742553865528"}}, "geometry": {"type": "Point", "coordinates": [131.08005775373238, 14.22485382133257]}}, {"type": "Feature", "properties": {"norad_id": 35434, "name": "COSMOS 2251 DEB", "group": "cosmos-2251-debris", "lat": 26.769947728855815, "lon": -160.93967921695915, "alt_km": 844.0247828811671, "timestamp": "2025-12-25T09:48:52.685145+00:00", "meta": {"OBJECT_NAME": "COSMOS 2251 DEB", "OBJECT_ID": "1993-036AKC", "EPOCH": "2025-12-23T05:28:40.876896", "MEAN_MOTION": 14.25716012, "ECCENTRICITY": 0.00872798, "INCLINATION": 74.0389, "RA_OF_ASC_NODE": 194.6941, "ARG_OF_PERICENTER": 263.2384, "MEAN_ANOMALY": 95.8825, "EPHEMERIS_TYPE": 0, "CLASSIFICATION_TYPE": "U", "NORAD_CAT_ID": 35434, "ELEMENT_SET_NO": 999, "REV_AT_EPOCH": 86267, "BSTAR": 0.00051853095, "MEAN_MOTION_DOT": 1.255e-05, "MEAN_MOTION_DDOT": 0}, "tle": {"line1": "1 35434U 93036AKC 25357.22825089  .00001255  00000+0  51853-3 0  9995", "line2": "2 35434  74.0389 194.6941 0087279 263.2384  95.8825 14.25716012862672"}}, "geometry": {"type": "Point", "coordinates": [-160.93967921695915, 26.769947728855815]}}, {"type": "Feature", "properties": {"norad_id": 35435, "name": "COSMOS 2251 DEB", "group": "cosmos-2251-debris", "lat": 62.28940661865631, "lon": -133.9601282503853, "alt_km": 624.494702414826, "timestamp": "2025-12-25T09:48:52.685155+00:00", "meta": {"OBJECT_NAME": "COSMOS 2251 DEB", "OBJECT_ID": "1993-036AKD", "EPOCH": "2025-12-24T14:06:56.153952", "MEAN_MOTION": 14.7881181, "ECCENTRICITY": 0.0006651, "INCLINATION": 74.0105, "RA_OF_ASC_NODE": 80.7425, "ARG_OF_PERICENTER": 178.2322, "MEAN_ANOMALY": 246.8342, "EPHEMERIS_TYPE": 0, "CLASSIFICATION_TYPE": "U", "NORAD_CAT_ID": 35435, "ELEMENT_SET_NO": 999, "REV_AT_EPOCH": 87714, "BSTAR": 0.0021800293, "MEAN_MOTION_DOT": 0.00016047, "MEAN_MOTION_DDOT": 0}, "tle": {"line1": "1 35435U 93036AKD 25358.58814993  .00016047  00000+0  21800-2 0  9991", "line2": "2 35435  74.0105  80.7425 0006651 178.2322 246.8342 14.78811810877143"}}, "geometry": {"type": "Point", "coordinates": [-133.9601282503853, 62.28940661865631]}}, {"type": "Feature", "properties": {"norad_id": 35439, "name": "COSMOS 2251 DEB", "group": "cosmos-2251-debris", "lat": 73.90543254195003, "lon": -150.2555912431935, "alt_km": 1086.6866830362342, "timestamp": "2025-12-25T09:48:52.685165+00:00", "meta": {"OBJECT_NAME": "COSMOS 2251 DEB", "OBJECT_ID": "1993-036AKH", "EPOCH": "2025-12-23T01:03:41.280192", "MEAN_MOTION": 13.9285581, "ECCENTRICITY": 0.02428241, "INCLINATION": 74.0195, "RA_OF_ASC_NODE": 117.083, "ARG_OF_PERICENTER": 284.1415, "MEAN_ANOMALY": 194.5054, "EPHEMERIS_TYPE": 0, "CLASSIFICATION_TYPE": "U", "NORAD_CAT_ID": 35439, "ELEMENT_SET_NO": 999, "REV_AT_EPOCH": 84104, "BSTAR": 0.0017241175, "MEAN_MOTION_DOT": 2.822e-05, "MEAN_MOTION_DDOT": 0}, "tle": {"line1": "1 35439U 93036AKH 25357.04422778  .00002822  00000+0  17241-2 0  9991", "line2": "2 35439  74.0195 117.0830 0242824 284.1415 194.5054 13.92855810841046"}}, "geometry": {"type": "Point", "coordinates": [-150.2555912431935, 73.90543254195003]}}, {"type": "Feature", "properties": {"norad_id": 35440, "name": "COSMOS 2251 DEB", "group": "cosmos-2251-debris", "lat": 25.381328499740953, "lon": -169.1062203780708, "alt_km": 642.9620619156485, "timestamp": "2025-12-25T09:48:52.685175+00:00", "meta": {"OBJECT_NAME": "COSMOS 2251 DEB", "OBJECT_ID": "1993-036AKJ", "EPOCH": "2025-12-22T19:34:52.667040", "MEAN_MOTION": 14.68858524, "ECCENTRICITY": 0.00697181, "INCLINATION": 74.0136, "RA_OF_ASC_NODE": 188.1002, "ARG_OF_PERICENTER": 326.674, "MEAN_ANOMALY": 33.0049, "EPHEMERIS_TYPE": 0, "CLASSIFICATION_TYPE": "U", "NORAD_CAT_ID": 35440, "ELEMENT_SET_NO": 999, "REV_AT_EPOCH": 68913, "BSTAR": 0.00037964995, "MEAN_MOTION_DOT": 2.268e-05, "MEAN_MOTION_DDOT": 0}, "tle": {"line1": "1 35440U 93036AKJ 25356.81588735  .00002268  00000+0  37965-3 0  9993", "line2": "2 35440  74.0136 188.1002 0069718 326.6740  33.0049 14.68858524689135"}}, "geometry": {"type": "Point", "coordinates": [-169.1062203780708, 25.381328499740953]}}, {"type": "Feature", "properties": {"norad_id": 35441, "name": "COSMOS 2251 DEB", "group": "cosmos-2251-debris", "lat": 54.86315953048441, "lon": -62.19769676739072, "alt_km": 686.3086172957474, "timestamp": "2025-12-25T09:48:52.685185+00:00", "meta": {"OBJECT_NAME": "COSMOS 2251 DEB", "OBJECT_ID": "1993-036AKK", "EPOCH": "2025-12-24T12:12:34.900128", "MEAN_MOTION": 14.62759756, "ECCENTRICITY": 0.0036013, "INCLINATION": 74.1345, "RA_OF_ASC_NODE": 275.6818, "ARG_OF_PERICENTER": 167.8993, "MEAN_ANOMALY": 192.3049, "EPHEMERIS_TYPE": 0, "CLASSIFICATION_TYPE": "U", "NORAD_CAT_ID": 35441, "ELEMENT_SET_NO": 999, "REV_AT_EPOCH": 87602, "BSTAR": 0.0014950847, "MEAN_MOTION_DOT": 7.673e-05, "MEAN_MOTION_DDOT": 0}, "tle": {"line1": "1 35441U 93036AKK 25358.50873727  .00007673  00000+0  14951-2 0  9994", "line2": "2 35441  74.1345 275.6818 0036013 167.8993 192.3049 14.62759756876029"}}, "geometry": {"type": "Point", "coordinates": [-62.19769676739072, 54.86315953048441]}}, {"type": "Feature", "properties": {"norad_id": 35442, "name": "COSMOS 2251 DEB", "group": "cosmos-2251-debris", "lat": -40.383848431987325, "lon": -91.91372066294419, "alt_km": 623.044575613184, "timestamp": "2025-12-25T09:48:52.685195+00:00", "meta": {"OBJECT_NAME": "COSMOS 2251 DEB", "OBJECT_ID": "1993-036AKL", "EPOCH": "2025-12-24T21:29:52.246176", "MEAN_MOTION": 14.84841759, "ECCENTRICITY": 0.0004043, "INCLINATION": 74.0273, "RA_OF_ASC_NODE": 75.0043, "ARG_OF_PERICENTER": 39.4854, "MEAN_ANOMALY": 320.6618, "EPHEMERIS_TYPE": 0, "CLASSIFICATION_TYPE": "U", "NORAD_CAT_ID": 35442, "ELEMENT_SET_NO": 999, "REV_AT_EPOCH": 87533, "BSTAR": 0.0020804, "MEAN_MOTION_DOT": 0.00017694, "MEAN_MOTION_DDOT": 0}, "tle": {"line1": "1 35442U 93036AKL 25358.89574359  .00017694  00000+0  20804-2 0  9994", "line2": "2 35442  74.0273  75.0043 0004043  39.4854 320.6618 14.84841759875339"}}, "geometry": {"type": "Point", "coordinates": [-91.91372066294419, -40.383848431987325]}}, {"type": "Feature", "properties": {"norad_id": 35443, "name": "COSMOS 2251 DEB", "group": "cosmos-2251-debris", "lat": 65.82213307402284, "lon": 86.1049250528674, "alt_km": 520.4001217639025, "timestamp": "2025-12-25T09:48:52.685204+00:00", "meta": {"OBJECT_NAME": "COSMOS 2251 DEB", "OBJECT_ID": "1993-036AKM", "EPOCH": "2025-12-25T02:55:33.228768", "MEAN_MOTION": 14.97777524, "ECCENTRICITY": 0.0072972, "INCLINATION": 73.9857, "RA_OF_ASC_NODE": 306.46, "ARG_OF_PERICENTER": 85.2675, "MEAN_ANOMALY": 275.6839, "EPHEMERIS_TYPE": 0, "CLASSIFICATION_TYPE": "U", "NORAD_CAT_ID": 35443, "ELEMENT_SET_NO": 999, "REV_AT_EPOCH": 87063, "BSTAR": 0.0041652, "MEAN_MOTION_DOT": 0.00051993, "MEAN_MOTION_DDOT": 0}, "tle": {"line1": "1 35443U 93036AKM 25359.12191237  .00051993  00000+0  41652-2 0  9996", "line2": "2 35443  73.9857 306.4600 0072972  85.2675 275.6839 14.97777524870636"}}, "geometry": {"type": "Point", "coordinates": [86.1049250528674, 65.82213307402284]}}, {"type": "Feature", "properties": {"norad_id": 35445, "name": "COSMOS 2251 DEB", "group": "cosmos-2251-debris", "lat": -31.02477714179982, "lon": 105.7629635631914, "alt_km": 786.0800218145896, "timestamp": "2025-12-25T09:48:52.685214+00:00", "meta": {"OBJECT_NAME": "COSMOS 2251 DEB", "OBJECT_ID": "1993-036AKP", "EPOCH": "2025-12-24T19:40:46.420608", "MEAN_MOTION": 14.59408318, "ECCENTRICITY": 0.01439573, "INCLINATION": 74.0386, "RA_OF_ASC_NODE": 276.9734, "ARG_OF_PERICENTER": 1.0045, "MEAN_ANOMALY": 359.138, "EPHEMERIS_TYPE": 0, "CLASSIFICATION_TYPE": "U", "NORAD_CAT_ID": 35445, "ELEMENT_SET_NO": 999, "REV_AT_EPOCH": 87505, "BSTAR": 0.0021997687, "MEAN_MOTION_DOT": 0.00012035, "MEAN_MOTION_DDOT": 0}, "tle": {"line1": "1 35445U 93036AKP 25358.81998172  .00012035  00000+0  21998-2 0  9991", "line2": "2 35445  74.0386 276.9734 0143957   1.0045 359.1380 14.59408318875055"}}, "geometry": {"type": "Point", "coordinates": [105.7629635631914, -31.02477714179982]}}]}